[{"OBJECT_NAME":"LUCH (OLYMP-K 1) DEB","OBJECT_ID":"2014-058D","EPOCH":"2026-04-25T14:31:33.759840","MEAN_MOTION":0.98020868,"ECCENTRICITY":0.13538082,"INCLINATION":1.7959,"RA_OF_ASC_NODE":84.4087,"ARG_OF_PERICENTER":358.0569,"MEAN_ANOMALY":1.5822,"EPHEMERIS_TYPE":0,"CLASSIFICATION_TYPE":"U","NORAD_CAT_ID":67745,"ELEMENT_SET_NO":999,"REV_AT_EPOCH":83,"BSTAR":0,"MEAN_MOTION_DOT":-1.93e-6,"MEAN_MOTION_DDOT":0},{"OBJECT_NAME":"ELEKTRO-L 5","OBJECT_ID":"2026-028A","EPOCH":"2026-04-25T04:42:48.623040","MEAN_MOTION":1.00271689,"ECCENTRICITY":9.87e-5,"INCLINATION":0.3626,"RA_OF_ASC_NODE":296.9606,"ARG_OF_PERICENTER":184.5136,"MEAN_ANOMALY":238.5262,"EPHEMERIS_TYPE":0,"CLASSIFICATION_TYPE":"U","NORAD_CAT_ID":67756,"ELEMENT_SET_NO":999,"REV_AT_EPOCH":72,"BSTAR":0,"MEAN_MOTION_DOT":-1.13e-6,"MEAN_MOTION_DDOT":0},{"OBJECT_NAME":"JAM-E JAM 1","OBJECT_ID":"2026-028B","EPOCH":"2026-04-25T22:19:43.643136","MEAN_MOTION":1.00265363,"ECCENTRICITY":5.684e-5,"INCLINATION":0.3775,"RA_OF_ASC_NODE":291.2353,"ARG_OF_PERICENTER":299.3632,"MEAN_ANOMALY":352.2414,"EPHEMERIS_TYPE":0,"CLASSIFICATION_TYPE":"U","NORAD_CAT_ID":67757,"ELEMENT_SET_NO":999,"REV_AT_EPOCH":59,"BSTAR":0,"MEAN_MOTION_DOT":1.42e-6,"MEAN_MOTION_DDOT":0},{"OBJECT_NAME":"ECHOSTAR 25","OBJECT_ID":"2026-045A","EPOCH":"2026-04-24T19:24:15.391008","MEAN_MOTION":1.00269397,"ECCENTRICITY":0.00029238,"INCLINATION":0.0161,"RA_OF_ASC_NODE":49.1041,"ARG_OF_PERICENTER":45.4072,"MEAN_ANOMALY":280.5526,"EPHEMERIS_TYPE":0,"CLASSIFICATION_TYPE":"U","NORAD_CAT_ID":68126,"ELEMENT_SET_NO":999,"REV_AT_EPOCH":45,"BSTAR":0,"MEAN_MOTION_DOT":0,"MEAN_MOTION_DDOT":0},{"OBJECT_NAME":"SWC-1","OBJECT_ID":"2026-069C","EPOCH":"2026-04-17T12:14:33.921312","MEAN_MOTION":1.01840683,"ECCENTRICITY":0.8357664,"INCLINATION":28.3533,"RA_OF_ASC_NODE":357.7706,"ARG_OF_PERICENTER":80.9928,"MEAN_ANOMALY":279.0715,"EPHEMERIS_TYPE":0,"CLASSIFICATION_TYPE":"U","NORAD_CAT_ID":68540,"ELEMENT_SET_NO":999,"REV_AT_EPOCH":16,"BSTAR":0,"MEAN_MOTION_DOT":-3.51e-6,"MEAN_MOTION_DDOT":0},{"OBJECT_NAME":"MERIDIAN-M 21L","OBJECT_ID":"2026-071A","EPOCH":"2026-04-17T09:37:42.062592","MEAN_MOTION":2.00620847,"ECCENTRICITY":0.72143829,"INCLINATION":62.7837,"RA_OF_ASC_NODE":236.9223,"ARG_OF_PERICENTER":285.0073,"MEAN_ANOMALY":10.9522,"EPHEMERIS_TYPE":0,"CLASSIFICATION_TYPE":"U","NORAD_CAT_ID":68571,"ELEMENT_SET_NO":999,"REV_AT_EPOCH":29,"BSTAR":0,"MEAN_MOTION_DOT":3.2e-7,"MEAN_MOTION_DDOT":0},{"OBJECT_NAME":"FREGAT R/B","OBJECT_ID":"2026-071B","EPOCH":"2026-04-03T07:42:42.175872","MEAN_MOTION":2.01041412,"ECCENTRICITY":0.73138199,"INCLINATION":63.0589,"RA_OF_ASC_NODE":237.9448,"ARG_OF_PERICENTER":284.9724,"MEAN_ANOMALY":10.3188,"EPHEMERIS_TYPE":0,"CLASSIFICATION_TYPE":"U","NORAD_CAT_ID":68572,"ELEMENT_SET_NO":999,"REV_AT_EPOCH":1,"BSTAR":0.00035051942,"MEAN_MOTION_DOT":-1.541e-5,"MEAN_MOTION_DDOT":0},{"OBJECT_NAME":"UNKNOWN","OBJECT_ID":"","EPOCH":"2026-04-25T10:04:43.573728","MEAN_MOTION":0.99112109,"ECCENTRICITY":0.0122072,"INCLINATION":5.856,"RA_OF_ASC_NODE":289.4858,"ARG_OF_PERICENTER":254.8442,"MEAN_ANOMALY":86.1383,"EPHEMERIS_TYPE":0,"CLASSIFICATION_TYPE":"U","NORAD_CAT_ID":83903,"ELEMENT_SET_NO":999,"REV_AT_EPOCH":4498,"BSTAR":0,"MEAN_MOTION_DOT":-1.41e-6,"MEAN_MOTION_DDOT":0},{"OBJECT_NAME":"UNKNOWN","OBJECT_ID":"","EPOCH":"2026-04-25T10:45:23.792256","MEAN_MOTION":1.02662495,"ECCENTRICITY":0.0222598,"INCLINATION":5.4837,"RA_OF_ASC_NODE":296.6855,"ARG_OF_PERICENTER":275.8064,"MEAN_ANOMALY":284.4329,"EPHEMERIS_TYPE":0,"CLASSIFICATION_TYPE":"U","NORAD_CAT_ID":83934,"ELEMENT_SET_NO":999,"REV_AT_EPOCH":4665,"BSTAR":0,"MEAN_MOTION_DOT":-2.28e-6,"MEAN_MOTION_DDOT":0},{"OBJECT_NAME":"UNKNOWN","OBJECT_ID":"","EPOCH":"2026-04-25T00:52:06.874752","MEAN_MOTION":2.05819232,"ECCENTRICITY":0.722611,"INCLINATION":19.3934,"RA_OF_ASC_NODE":283.2287,"ARG_OF_PERICENTER":133.7057,"MEAN_ANOMALY":314.8777,"EPHEMERIS_TYPE":0,"CLASSIFICATION_TYPE":"U","NORAD_CAT_ID":84407,"ELEMENT_SET_NO":999,"REV_AT_EPOCH":7861,"BSTAR":0.045676,"MEAN_MOTION_DOT":2.57e-6,"MEAN_MOTION_DDOT":0},{"OBJECT_NAME":"UNKNOWN","OBJECT_ID":"","EPOCH":"2026-04-24T04:11:33.501984","MEAN_MOTION":2.19856562,"ECCENTRICITY":0.7127224,"INCLINATION":18.0641,"RA_OF_ASC_NODE":113.6489,"ARG_OF_PERICENTER":104.1646,"MEAN_ANOMALY":338.3019,"EPHEMERIS_TYPE":0,"CLASSIFICATION_TYPE":"U","NORAD_CAT_ID":84575,"ELEMENT_SET_NO":999,"REV_AT_EPOCH":6837,"BSTAR":0.00041711,"MEAN_MOTION_DOT":-1.5e-6,"MEAN_MOTION_DDOT":0}]
